{
  "type": "FeatureCollection",
  "features": [
    {
      "type": "Feature",
      "properties": {
        "name": "Drawn Route",
        "length_km": "18.84"
      },
      "geometry": {
        "type": "LineString",
        "coordinates": [
          [
            73.07135939084242,
            26.05934007865963,
            141.20971806267733
          ],
          [
            73.07136910393355,
            26.059314163839144,
            141.1583634215037
          ],
          [
            73.07074559497138,
            26.061620428540646,
            141.67374738375491
          ],
          [
            73.07027330688675,
            26.063219584453762,
            143.03097715539556
          ],
          [
            73.0698935481321,
            26.064717974405166,
            145.73181867023203
          ],
          [
            73.06922563776563,
            26.067358547309816,
            144.6312721971005
          ],
          [
            73.0688035920508,
            26.069127744745487,
            145.34528598966963
          ],
          [
            73.06831406329827,
            26.071656566967192,
            145.44061707716688
          ],
          [
            73.06763428939384,
            26.075283250911916,
            146.11269046516165
          ],
          [
            73.0669699645656,
            26.078726765640262,
            149.80707422241426
          ],
          [
            73.06670637381735,
            26.080137547660424,
            149.3833814120525
          ],
          [
            73.06626597967403,
            26.082469300099472,
            151.16400008347063
          ],
          [
            73.06549318296636,
            26.08646914988774,
            152.51467555360378
          ],
          [
            73.06469534660323,
            26.09066688430576,
            156.04483785866026
          ],
          [
            73.06441059004882,
            26.092126382896947,
            158.6935674445529
          ],
          [
            73.06409279639848,
            26.093895722521268,
            161.97146899334814
          ],
          [
            73.0637160101346,
            26.095605041731083,
            162.85304898462613
          ],
          [
            73.06316908933225,
            26.097575400990344,
            159.04537693370418
          ],
          [
            73.06268356314729,
            26.099326442607044,
            154.6970298861699
          ],
          [
            73.06195140454668,
            26.101994339748632,
            150.87252759876048
          ],
          [
            73.06093570085744,
            26.105787196756882,
            146.8097806117972
          ],
          [
            73.05989700020639,
            26.109379563827286,
            150.9541820193
          ],
          [
            73.05878261263433,
            26.11343576207766,
            147.90251621110596
          ],
          [
            73.05789278029731,
            26.11668330482733,
            150.96987108852218
          ],
          [
            73.05748248858175,
            26.11825848597065,
            149.2552047606178
          ],
          [
            73.05731216233933,
            26.119327978680943,
            148.65653574224203
          ],
          [
            73.0571431850588,
            26.122180810964526,
            149.3807671923662
          ],
          [
            73.05705326301317,
            26.124075980811423,
            150.03440756773662
          ],
          [
            73.05693494750754,
            26.126141014484176,
            146.41942460413043
          ],
          [
            73.05677797139595,
            26.12788476875812,
            144.43265513002322
          ],
          [
            73.05653523852517,
            26.12958904497147,
            146.25982088247773
          ],
          [
            73.05618016952343,
            26.131736435761606,
            146.97452133186158
          ],
          [
            73.05588787859168,
            26.132553331400413,
            148.99709409398486
          ],
          [
            73.05537503297263,
            26.133675996221065,
            147.58208461723217
          ],
          [
            73.05470912410583,
            26.135172965340633,
            148.66927873503724
          ],
          [
            73.05405703749999,
            26.13666255599478,
            147.14778901395775
          ],
          [
            73.05282051128668,
            26.139528891809462,
            148.32328847939337
          ],
          [
            73.05209318224414,
            26.141133149858337,
            150.08014038708296
          ],
          [
            73.05015665678184,
            26.145546269033304,
            150.21981615392315
          ],
          [
            73.04943709334228,
            26.14708050211728,
            152.7520057120468
          ],
          [
            73.04908024669963,
            26.148133278848483,
            151.77380341015672
          ],
          [
            73.04885439080692,
            26.1492584306475,
            150.25151684193148
          ],
          [
            73.04867423389271,
            26.151536633332725,
            148.98377832398324
          ],
          [
            73.04842955177413,
            26.154175097415433,
            151.5798651044473
          ],
          [
            73.04815277870811,
            26.15722166914653,
            150.94954746206938
          ],
          [
            73.04787611774049,
            26.160228064691257,
            148.0343518869824
          ],
          [
            73.04756778014197,
            26.163091773159824,
            149.5843535616087
          ],
          [
            73.04727316073912,
            26.16562101747028,
            151.37185703897862
          ],
          [
            73.04694383490346,
            26.16908242315105,
            148.76834414611358
          ],
          [
            73.04679755891479,
            26.171316163471328,
            150.09453304084929
          ],
          [
            73.04655255612658,
            26.175369163955022,
            151.8203458599249
          ],
          [
            73.04647506175104,
            26.177418583177086,
            152.13845731612037
          ],
          [
            73.04647486618721,
            26.179667193807155,
            151.33775741854512
          ],
          [
            73.04647773548339,
            26.180918423537076,
            151.45554329866934
          ],
          [
            73.04648002710373,
            26.181891340557126,
            151.63854256689643
          ],
          [
            73.04627511613619,
            26.182935136285582,
            152.51244380775967
          ],
          [
            73.04588033742878,
            26.18404523554107,
            151.56132897989664
          ],
          [
            73.04549408616839,
            26.18499430647853,
            150.8990306112968
          ],
          [
            73.0452584652936,
            26.18554353709906,
            150.73758169781186
          ],
          [
            73.04479991695356,
            26.186581209589654,
            150.44193340199416
          ],
          [
            73.044343872738,
            26.18767509517114,
            149.9690159941716
          ],
          [
            73.04357522590455,
            26.189648993041416,
            148.7627468928728
          ],
          [
            73.04326086239053,
            26.190606807312633,
            148.51512073934154
          ],
          [
            73.04314564236203,
            26.19113117639234,
            148.92767049616512
          ],
          [
            73.04311505820333,
            26.191841836025098,
            150.93580042049933
          ],
          [
            73.04318196634385,
            26.19254396101798,
            151.6898734745283
          ],
          [
            73.04327276555146,
            26.193534214496324,
            151.31005404567395
          ],
          [
            73.04318041822427,
            26.195724775074815,
            151.85667221393612
          ],
          [
            73.04311611560881,
            26.197703291973117,
            152.69298669039907
          ],
          [
            73.04301202948136,
            26.199675700772136,
            151.72592664571394
          ],
          [
            73.04273264834417,
            26.203249821746102,
            154.31372444017086
          ],
          [
            73.04242968641711,
            26.205535551175107,
            158.72024158851627
          ],
          [
            73.04219411350498,
            26.20807625348826,
            154.34543367204026
          ],
          [
            73.04189327714124,
            26.211395042553626,
            156.98802141404448
          ],
          [
            73.04162051043296,
            26.21454286732835,
            156.20116727679678
          ],
          [
            73.04122237307791,
            26.21782770538098,
            159.6881860600276
          ],
          [
            73.0409293222052,
            26.219475996826823,
            160.45133349505312
          ],
          [
            73.0401704711391,
            26.222297940162594,
            160.7974978945478
          ],
          [
            73.03966889113642,
            26.2237513581107,
            162.63450202750886
          ],
          [
            73.03945798184496,
            26.224780685438443,
            161.90738483792882
          ],
          [
            73.03940431140971,
            26.225820709909154,
            163.01024118682886
          ]
        ]
      }
    }
  ]
}